{
    "links": {
        "self": "http://www.neowsapp.com/rest/v1/neo/3600559?api_key=iIulBulltgU6a56xZRHN4H3l9WmuAYTsLGpBGhQ2"
    },
    "id": "3600559",
    "neo_reference_id": "3600559",
    "name": "(2012 EZ1)",
    "designation": "2012 EZ1",
    "nasa_jpl_url": "http://ssd.jpl.nasa.gov/sbdb.cgi?sstr=3600559",
    "absolute_magnitude_h": 28.8,
    "estimated_diameter": {
        "kilometers": {
            "estimated_diameter_min": 0.0046190746,
            "estimated_diameter_max": 0.0103285648
        },
        "meters": {
            "estimated_diameter_min": 4.6190746028,
            "estimated_diameter_max": 10.328564805
        },
        "miles": {
            "estimated_diameter_min": 0.002870159,
            "estimated_diameter_max": 0.0064178706
        },
        "feet": {
            "estimated_diameter_min": 15.1544447199,
            "estimated_diameter_max": 33.886368555
        }
    },
    "is_potentially_hazardous_asteroid": false,
    "close_approach_data": [
        {
            "close_approach_date": "2012-03-01",
            "close_approach_date_full": "2012-Mar-01 08:34",
            "epoch_date_close_approach": 1330590840000,
            "relative_velocity": {
                "kilometers_per_second": "12.8203060887",
                "kilometers_per_hour": "46153.1019193628",
                "miles_per_hour": "28677.7426898396"
            },
            "miss_distance": {
                "astronomical": "0.0018984935",
                "lunar": "0.7385139715",
                "kilometers": "284010.583808845",
                "miles": "176475.993478261"
            },
            "orbiting_body": "Moon"
        },
        {
            "close_approach_date": "2012-03-01",
            "close_approach_date_full": "2012-Mar-01 10:36",
            "epoch_date_close_approach": 1330598160000,
            "relative_velocity": {
                "kilometers_per_second": "13.7794364136",
                "kilometers_per_hour": "49605.9710888848",
                "miles_per_hour": "30823.2213135351"
            },
            "miss_distance": {
                "astronomical": "0.0015472004",
                "lunar": "0.6018609556",
                "kilometers": "231457.884303148",
                "miles": "143821.2602255224"
            },
            "orbiting_body": "Earth"
        }
    ],
    "orbital_data": {
        "orbit_id": "4",
        "orbit_determination_date": "2017-04-06 08:50:39",
        "first_observation_date": "2012-03-02",
        "last_observation_date": "2012-03-03",
        "data_arc_in_days": 1,
        "observations_used": 13,
        "orbit_uncertainty": "8",
        "minimum_orbit_intersection": ".00112284",
        "jupiter_tisserand_invariant": "3.591",
        "epoch_osculation": "2455989.5",
        "eccentricity": ".596022138430179",
        "semi_major_axis": "2.00644973603502",
        "inclination": ".5023239064408588",
        "ascending_node_longitude": "153.5928123640605",
        "orbital_period": "1038.103974483297",
        "perihelion_distance": ".8105612737107589",
        "perihelion_argument": "308.2141324341893",
        "aphelion_distance": "3.20233819835928",
        "perihelion_time": "2455947.977839832771",
        "mean_anomaly": "14.39930683980149",
        "mean_motion": ".3467860723480859",
        "equinox": "J2000",
        "orbit_class": {
            "orbit_class_type": "APO",
            "orbit_class_description": "Near-Earth asteroid orbits which cross the Earth’s orbit similar to that of 1862 Apollo",
            "orbit_class_range": "a (semi-major axis) > 1.0 AU; q (perihelion) < 1.017 AU"
        }
    },
    "is_sentry_object": false
}